[{"OBJECT_NAME":"STARLINK-2526","OBJECT_ID":"2021-038AB","EPOCH":"2026-03-09T22:41:23.494848","MEAN_MOTION":15.30187905,"ECCENTRICITY":0.00013052,"INCLINATION":53.1612,"RA_OF_ASC_NODE":346.6542,"ARG_OF_PERICENTER":99.1282,"MEAN_ANOMALY":260.9866,"EPHEMERIS_TYPE":0,"CLASSIFICATION_TYPE":"U","NORAD_CAT_ID":48378,"ELEMENT_SET_NO":999,"REV_AT_EPOCH":26726,"BSTAR":-4.3294809e-5,"MEAN_MOTION_DOT":-1.641e-5,"MEAN_MOTION_DDOT":0},{"OBJECT_NAME":"SCS-01 H","OBJECT_ID":"2025-100H","EPOCH":"2026-03-09T23:19:05.376864","MEAN_MOTION":15.31767757,"ECCENTRICITY":0.00071581,"INCLINATION":97.3749,"RA_OF_ASC_NODE":145.8085,"ARG_OF_PERICENTER":277.8492,"MEAN_ANOMALY":82.1937,"EPHEMERIS_TYPE":0,"CLASSIFICATION_TYPE":"U","NORAD_CAT_ID":63989,"ELEMENT_SET_NO":999,"REV_AT_EPOCH":4566,"BSTAR":0.0011436254,"MEAN_MOTION_DOT":0.00035149,"MEAN_MOTION_DDOT":0}]
